OCEANSAT-2              
1 35931U 09051A   26198.22371376 -.00000038  00000+0 -25716-6 0  9992
2 35931  98.2321 182.0763 0017472 147.6578 212.5663 13.99655931883537
WORLDVIEW-2 (WV-2)      
1 35946U 09055A   26198.15530470  .00000044  00000+0  28928-4 0  9997
2 35946  98.4755 271.1969 0005382 125.1514 235.0178 14.37907253879954
SMOS                    
1 36036U 09059A   26197.51685470  .00000112  00000+0  49666-4 0  9990
2 36036  98.4429  24.4220 0001164  97.4594 262.6727 14.39736468877678
YAOGAN-7                
1 36110U 09069A   26198.14703255  .00000189  00000+0  33467-4 0  9992
2 36110  98.0030  83.8237 0023391 304.7704  55.1305 14.78036478894050
TANDEM-X                
1 36605U 10030A   26188.47915494  .00000386  00000+0  21566-4 0  9992
2 36605  97.4457 195.8973 0001887  94.3019 265.8431 15.19154052889726
CARTOSAT-2B             
1 36795U 10035A   26198.18255009  .00000566  00000+0  84324-4 0  9996
2 36795  97.9935 248.5375 0012736  94.1268 266.1399 14.78653225864284
YAOGAN-10               
1 36834U 10038A   26198.19554698  .00000567  00000+0  72102-4 0  9992
2 36834  97.8966 221.3608 0001672  81.8065 352.0501 14.85432930861669
COSMO-SKYMED 4          
1 37216U 10060A   26198.14839101  .00000485  00000+0  67503-4 0  9990
2 37216  97.8889  21.3143 0001522  86.0443 274.0944 14.82150987849005
RESOURCESAT-2           
1 37387U 11015A   26198.14248840  .00000035  00000+0  35903-4 0  9994
2 37387  98.7631 265.3751 0011665 165.6644 194.4866 14.21599827790433
HAIYANG-2A              
1 37781U 11043A   26198.18812194  .00000168  00000+0  22813-3 0  9998
2 37781  99.3397 200.1756 0002087  25.8798 334.2455 13.73205873750776
RASAT                   
1 37791U 11044D   26198.22643683  .00000095  00000+0  24948-4 0  9991
2 37791  98.0586 289.1652 0021955  96.7579 291.8780 14.68193253797597
SRMSAT                  
1 37841U 11058D   26198.19137080  .00000329  00000+0  34785-4 0  9997
2 37841  19.9707 237.8634 0011708 173.0864 239.6665 14.11581345762068
PLEIADES 1A             
1 38012U 11076F   26198.17704711 -.00000116  00000+0 -15118-4 0  9992
2 38012  98.1971 272.8752 0001650  78.9157   2.0192 14.58546674776366
ZIYUAN 1-02C (ZY 1-02C) 
1 38038U 11079A   26198.20200956  .00000021  00000+0  20973-4 0  9997
2 38038  98.4060 264.8815 0005740 208.0924 226.7163 14.38236162763522
ARIRANG-3 (KOMPSAT-3)   
1 38338U 12025B   26198.21032458  .00000178  00000+0  44542-4 0  9994
2 38338  98.1186 155.1555 0006103  33.5027 326.6559 14.62229958755738
EXACTVIEW-1 (ADS-1B)    
1 38709U 12039C   26197.87173463  .00000031  00000+0  33114-4 0  9995
2 38709  98.9807 315.9364 0011957  87.2353 273.0194 14.24992448726932
SPOT 6                  
1 38755U 12047A   26198.17703225 -.00000048  00000+0 -49834-6 0  9992
2 38755  98.2108 265.1325 0001093  88.2618 271.8706 14.58538941737420
PLEIADES 1B             
1 39019U 12068A   26198.19563453 -.00000008  00000+0  80986-5 0  9995
2 39019  98.1942 272.8322 0001540  78.5571 281.5801 14.58534625725222
GOKTURK 2               
1 39030U 12073A   26198.18948162  .00000470  00000+0  75890-4 0  9996
2 39030  97.6804  34.1154 0000972  97.6525 262.4796 14.75570283728938
LANDSAT 8               
1 39084U 13008A   26198.17082542  .00000104  00000+0  33101-4 0  9997
2 39084  98.2289 267.9479 0001361  91.2054 268.9300 14.57094924702260
SARAL                   
1 39086U 13009A   26198.13752617  .00000026  00000+0  25451-4 0  9995
2 39086  98.5556  24.3261 0001812 161.8937 198.2312 14.32896107699899
GAOFEN-1                
1 39150U 13018A   26198.21966472 -.00000082  00000+0 -44750-5 0  9990
2 39150  97.9086 269.6751 0017250 164.8133 195.3598 14.76518535712674
VNREDSAT 1              
1 39160U 13021B   26198.14381765  .00000413  00000+0  85744-4 0  9996
2 39160  97.9062 250.4079 0001554  80.6224 279.5155 14.64885663704677
ARIRANG-5 (KOMPSAT-5)   
1 39227U 13042A   26198.16130709 -.00000070  00000+0 -65169-6 0  9997
2 39227  97.6201  24.4405 0005229  52.7010 307.4692 15.04494893708364
SKYSAT-A                
1 39418U 13066C   26198.08357468  .00001507  00000+0  88285-4 0  9995
2 39418  97.3801 246.5281 0020637 206.5952 153.4222 15.13121184693004
DUBAISAT-2              
1 39419U 13066D   26198.21649383  .00001876  00000+0  11801-3 0  9999
2 39419  97.4577 187.5802 0009181 295.5048  64.5232 15.10383565690925
GPM-CORE                
1 39574U 14009C   26198.11738181  .00003262  00000+0  74055-4 0  9995
2 39574  64.9692 207.8439 0010925 262.5845  97.4055 15.45056932702434
SENTINEL-1A             
1 39634U 14016A   26198.12747764 -.00000104  00000+0 -12369-4 0  9992
2 39634  98.1769 205.2234 0001427  85.8154 274.3209 14.59195939654388
KAZEOSAT 1              
1 39731U 14024A   26198.20437207 -.00000132  00000+0 -27250-4 0  9992
2 39731  98.3199 269.9026 0001208  83.8932 276.2395 14.42037145642885
ALOS-2                  
1 39766U 14029A   26198.23579398  .00000859  00000+0  12183-3 0  9998
2 39766  97.9235 294.9698 0001591  92.9607 267.1786 14.79470570656024
KAZEOSAT 2              
1 40010U 14033A   26198.20505383 -.00000017  00000+0  38071-5 0  9990
2 40010  97.5389  36.2292 0007497 212.0253 148.0508 14.85501534653415
