OBJECT_NAME,OBJECT_ID,EPOCH,MEAN_MOTION,ECCENTRICITY,INCLINATION,RA_OF_ASC_NODE,ARG_OF_PERICENTER,MEAN_ANOMALY,EPHEMERIS_TYPE,CLASSIFICATION_TYPE,NORAD_CAT_ID,ELEMENT_SET_NO,REV_AT_EPOCH,BSTAR,MEAN_MOTION_DOT,MEAN_MOTION_DDOT
OCEANSAT-2,2009-051A,2026-07-17T05:22:08.868864,13.99655931,.0017472,98.2321,182.0763,147.6578,212.5663,0,U,35931,999,88353,-.25716E-6,-.38E-6,0
WORLDVIEW-2 (WV-2),2009-055A,2026-07-17T03:43:38.326080,14.37907253,.0005382,98.4755,271.1969,125.1514,235.0178,0,U,35946,999,87995,.28928E-4,.44E-6,0
SMOS,2009-059A,2026-07-16T12:24:16.246080,14.39736468,.0001164,98.4429,24.4220,97.4594,262.6727,0,U,36036,999,87767,.49666E-4,.112E-5,0
YAOGAN-7,2009-069A,2026-07-17T03:31:43.612320,14.78036478,.0023391,98.0030,83.8237,304.7704,55.1305,0,U,36110,999,89405,.33467E-4,.189E-5,0
TANDEM-X,2010-030A,2026-07-07T11:29:58.986816,15.19154052,.0001887,97.4457,195.8973,94.3019,265.8431,0,U,36605,999,88972,.21566E-4,.386E-5,0
CARTOSAT-2B,2010-035A,2026-07-17T04:22:52.327776,14.78653225,.0012736,97.9935,248.5375,94.1268,266.1399,0,U,36795,999,86428,.84324E-4,.566E-5,0
YAOGAN-10,2010-038A,2026-07-17T04:41:35.259072,14.85432930,.0001672,97.8966,221.3608,81.8065,352.0501,0,U,36834,999,86166,.72102E-4,.567E-5,0
COSMO-SKYMED 4,2010-060A,2026-07-17T03:33:40.983264,14.82150987,.0001522,97.8889,21.3143,86.0443,274.0944,0,U,37216,999,84900,.67503E-4,.485E-5,0
RESOURCESAT-2,2011-015A,2026-07-17T03:25:10.997760,14.21599827,.0011665,98.7631,265.3751,165.6644,194.4866,0,U,37387,999,79043,.35903E-4,.35E-6,0
HAIYANG-2A,2011-043A,2026-07-17T04:30:53.735616,13.73205873,.0002087,99.3397,200.1756,25.8798,334.2455,0,U,37781,999,75077,.22813E-3,.168E-5,0
RASAT,2011-044D,2026-07-17T05:26:04.142112,14.68193253,.0021955,98.0586,289.1652,96.7579,291.8780,0,U,37791,999,79759,.24948E-4,.95E-6,0
SRMSAT,2011-058D,2026-07-17T04:35:34.437120,14.11581345,.0011708,19.9707,237.8634,173.0864,239.6665,0,U,37841,999,76206,.34785E-4,.329E-5,0
PLEIADES 1A,2011-076F,2026-07-17T04:14:56.870304,14.58546674,.000165,98.1971,272.8752,78.9157,2.0192,0,U,38012,999,77636,-.15118E-4,-.116E-5,0
ZIYUAN 1-02C (ZY 1-02C),2011-079A,2026-07-17T04:50:53.625984,14.38236162,.000574,98.4060,264.8815,208.0924,226.7163,0,U,38038,999,76352,.20973E-4,.21E-6,0
ARIRANG-3 (KOMPSAT-3),2012-025B,2026-07-17T05:02:52.043712,14.62229958,.0006103,98.1186,155.1555,33.5027,326.6559,0,U,38338,999,75573,.44542E-4,.178E-5,0
EXACTVIEW-1 (ADS-1B),2012-039C,2026-07-16T20:55:17.872032,14.24992448,.0011957,98.9807,315.9364,87.2353,273.0194,0,U,38709,999,72693,.33114E-4,.31E-6,0
SPOT 6,2012-047A,2026-07-17T04:14:55.586400,14.58538941,.0001093,98.2108,265.1325,88.2618,271.8706,0,U,38755,999,73742,-.49834E-6,-.48E-6,0
PLEIADES 1B,2012-068A,2026-07-17T04:41:42.823392,14.58534625,.000154,98.1942,272.8322,78.5571,281.5801,0,U,39019,999,72522,.80986E-5,-.8E-7,0
GOKTURK 2,2012-073A,2026-07-17T04:32:51.211968,14.75570283,.0000972,97.6804,34.1154,97.6525,262.4796,0,U,39030,999,72893,.7589E-4,.47E-5,0
LANDSAT 8,2013-008A,2026-07-17T04:05:59.316288,14.57094924,.0001361,98.2289,267.9479,91.2054,268.9300,0,U,39084,999,70226,.33101E-4,.104E-5,0
SARAL,2013-009A,2026-07-17T03:18:02.261088,14.32896107,.0001812,98.5556,24.3261,161.8937,198.2312,0,U,39086,999,69989,.25451E-4,.26E-6,0
GAOFEN-1,2013-018A,2026-07-17T05:16:19.031808,14.76518535,.001725,97.9086,269.6751,164.8133,195.3598,0,U,39150,999,71267,-.4475E-5,-.82E-6,0
VNREDSAT 1,2013-021B,2026-07-17T03:27:05.844960,14.64885663,.0001554,97.9062,250.4079,80.6224,279.5155,0,U,39160,999,70467,.85744E-4,.413E-5,0
ARIRANG-5 (KOMPSAT-5),2013-042A,2026-07-17T03:52:16.932576,15.04494893,.0005229,97.6201,24.4405,52.7010,307.4692,0,U,39227,999,70836,-.65169E-6,-.7E-6,0
SKYSAT-A,2013-066C,2026-07-17T02:00:20.852352,15.13121184,.0020637,97.3801,246.5281,206.5952,153.4222,0,U,39418,999,69300,.88285E-4,.1507E-4,0
DUBAISAT-2,2013-066D,2026-07-17T05:11:45.066912,15.10383565,.0009181,97.4577,187.5802,295.5048,64.5232,0,U,39419,999,69092,.11801E-3,.1876E-4,0
GPM-CORE,2014-009C,2026-07-17T02:49:01.788384,15.45056932,.0010925,64.9692,207.8439,262.5845,97.4055,0,U,39574,999,70243,.74055E-4,.3262E-4,0
SENTINEL-1A,2014-016A,2026-07-17T03:03:34.068096,14.59195939,.0001427,98.1769,205.2234,85.8154,274.3209,0,U,39634,999,65438,-.12369E-4,-.104E-5,0
KAZEOSAT 1,2014-024A,2026-07-17T04:54:17.746848,14.42037145,.0001208,98.3199,269.9026,83.8932,276.2395,0,U,39731,999,64288,-.2725E-4,-.132E-5,0
ALOS-2,2014-029A,2026-07-17T05:39:32.599872,14.79470570,.0001591,97.9235,294.9698,92.9607,267.1786,0,U,39766,999,65602,.12183E-3,.859E-5,0
KAZEOSAT 2,2014-033A,2026-07-17T04:55:16.650912,14.85501534,.0007497,97.5389,36.2292,212.0253,148.0508,0,U,40010,999,65341,.38071E-5,-.17E-6,0
